VESSELSAT 1             
1 37840U 11058C   24190.19108746  .00000387  00000+0  66675-4 0  9990
2 37840  19.9637  15.1437 0013711   3.3956 356.6540 14.11172268657650
ORBCOMM FM107           
1 40087U 14040B   24190.73225650  .00000669  00000+0  18522-3 0  9995
2 40087  47.0038 197.8246 0000691 194.3878 165.6987 14.56805338531033
ORBCOMM FM106           
1 40088U 14040C   24190.84725210  .00001431  00000+0  28337-3 0  9998
2 40088  47.0623  46.0159 0018263 271.8273  88.0525 14.67267325533012
ORBCOMM FM111           
1 40089U 14040D   24190.75376547  .00003040  00000+0  39983-3 0  9991
2 40089  47.0049 300.4333 0033031 349.4780  10.5420 14.82194951539203
ORBCOMM FM104           
1 40090U 14040E   24190.83344214  .00000638  00000+0  18418-3 0  9998
2 40090  47.0041 226.9339 0015988  75.0192 285.2461 14.55280388530583
